<?xml version="1.0" encoding="UTF-8"?><kml xmlns="http://www.opengis.net/kml/2.2"><Document><name>Kemudahan (sintetik)</name><description>Data latihan kursus JS-PGN-5 — bukan data sebenar</description><Placemark><name>Sekolah Kebangsaan Latihan 1</name><description>sekolah</description><ExtendedData><Data name="kod"><value>KMD-01</value></Data><Data name="nama"><value>Sekolah Kebangsaan Latihan 1</value></Data><Data name="jenis"><value>sekolah</value></Data></ExtendedData><Point><coordinates>101.73428,2.93619</coordinates></Point></Placemark><Placemark><name>Sekolah Menengah Latihan 2</name><description>sekolah</description><ExtendedData><Data name="kod"><value>KMD-02</value></Data><Data name="nama"><value>Sekolah Menengah Latihan 2</value></Data><Data name="jenis"><value>sekolah</value></Data></ExtendedData><Point><coordinates>101.71091,2.90845</coordinates></Point></Placemark><Placemark><name>Klinik Kesihatan Latihan</name><description>klinik</description><ExtendedData><Data name="kod"><value>KMD-03</value></Data><Data name="nama"><value>Klinik Kesihatan Latihan</value></Data><Data name="jenis"><value>klinik</value></Data></ExtendedData><Point><coordinates>101.70865,2.92067</coordinates></Point></Placemark><Placemark><name>Klinik Komuniti Presint</name><description>klinik</description><ExtendedData><Data name="kod"><value>KMD-04</value></Data><Data name="nama"><value>Klinik Komuniti Presint</value></Data><Data name="jenis"><value>klinik</value></Data></ExtendedData><Point><coordinates>101.72026,2.93167</coordinates></Point></Placemark><Placemark><name>Balai Polis Latihan</name><description>balai-polis</description><ExtendedData><Data name="kod"><value>KMD-05</value></Data><Data name="nama"><value>Balai Polis Latihan</value></Data><Data name="jenis"><value>balai-polis</value></Data></ExtendedData><Point><coordinates>101.70143,2.89475</coordinates></Point></Placemark><Placemark><name>Masjid Latihan Presint</name><description>masjid</description><ExtendedData><Data name="kod"><value>KMD-06</value></Data><Data name="nama"><value>Masjid Latihan Presint</value></Data><Data name="jenis"><value>masjid</value></Data></ExtendedData><Point><coordinates>101.67128,2.94378</coordinates></Point></Placemark><Placemark><name>Surau Taman Latihan</name><description>masjid</description><ExtendedData><Data name="kod"><value>KMD-07</value></Data><Data name="nama"><value>Surau Taman Latihan</value></Data><Data name="jenis"><value>masjid</value></Data></ExtendedData><Point><coordinates>101.70353,2.92959</coordinates></Point></Placemark><Placemark><name>Taman Rekreasi Tasik Latihan</name><description>taman</description><ExtendedData><Data name="kod"><value>KMD-08</value></Data><Data name="nama"><value>Taman Rekreasi Tasik Latihan</value></Data><Data name="jenis"><value>taman</value></Data></ExtendedData><Point><coordinates>101.7104,2.96068</coordinates></Point></Placemark><Placemark><name>Taman Permainan Presint</name><description>taman</description><ExtendedData><Data name="kod"><value>KMD-09</value></Data><Data name="nama"><value>Taman Permainan Presint</value></Data><Data name="jenis"><value>taman</value></Data></ExtendedData><Point><coordinates>101.68273,2.9636</coordinates></Point></Placemark><Placemark><name>Perpustakaan Awam Latihan</name><description>perpustakaan</description><ExtendedData><Data name="kod"><value>KMD-10</value></Data><Data name="nama"><value>Perpustakaan Awam Latihan</value></Data><Data name="jenis"><value>perpustakaan</value></Data></ExtendedData><Point><coordinates>101.67465,2.89107</coordinates></Point></Placemark><Placemark><name>Balai Bomba Latihan</name><description>bomba</description><ExtendedData><Data name="kod"><value>KMD-11</value></Data><Data name="nama"><value>Balai Bomba Latihan</value></Data><Data name="jenis"><value>bomba</value></Data></ExtendedData><Point><coordinates>101.73345,2.91577</coordinates></Point></Placemark><Placemark><name>Dewan Serbaguna Latihan</name><description>dewan</description><ExtendedData><Data name="kod"><value>KMD-12</value></Data><Data name="nama"><value>Dewan Serbaguna Latihan</value></Data><Data name="jenis"><value>dewan</value></Data></ExtendedData><Point><coordinates>101.72524,2.9317</coordinates></Point></Placemark></Document></kml>