{
  "type": "FeatureCollection",
  "features": [
    {
      "type": "Feature",
      "id": "SG-01",
      "properties": {
        "kod": "SG-01",
        "nama": "Sungai Latihan Utama",
        "panjang_km": 11.93
      },
      "geometry": {
        "type": "LineString",
        "coordinates": [
          [
            101.675,
            2.97
          ],
          [
            101.677731,
            2.968519
          ],
          [
            101.679606,
            2.966658
          ],
          [
            101.682074,
            2.965061
          ],
          [
            101.682966,
            2.962763
          ],
          [
            101.685549,
            2.961216
          ],
          [
            101.686392,
            2.958897
          ],
          [
            101.686967,
            2.956458
          ],
          [
            101.688045,
            2.954242
          ],
          [
            101.688543,
            2.951769
          ],
          [
            101.689292,
            2.949408
          ],
          [
            101.68939,
            2.946757
          ],
          [
            101.689072,
            2.943921
          ],
          [
            101.688502,
            2.940973
          ],
          [
            101.688109,
            2.938104
          ],
          [
            101.68798,
            2.935352
          ],
          [
            101.688242,
            2.932774
          ],
          [
            101.687703,
            2.92984
          ],
          [
            101.688476,
            2.92749
          ],
          [
            101.688554,
            2.92483
          ],
          [
            101.689415,
            2.922518
          ],
          [
            101.690892,
            2.92048
          ],
          [
            101.692301,
            2.918412
          ],
          [
            101.693611,
            2.916299
          ],
          [
            101.695485,
            2.914438
          ],
          [
            101.697628,
            2.912696
          ],
          [
            101.700048,
            2.911077
          ],
          [
            101.702138,
            2.909311
          ],
          [
            101.704434,
            2.907637
          ],
          [
            101.706874,
            2.906027
          ],
          [
            101.708582,
            2.904092
          ],
          [
            101.710644,
            2.902314
          ],
          [
            101.71249,
            2.90044
          ],
          [
            101.713177,
            2.898051
          ],
          [
            101.714372,
            2.895888
          ],
          [
            101.71514,
            2.893535
          ],
          [
            101.715248,
            2.890888
          ],
          [
            101.715588,
            2.888345
          ],
          [
            101.71538,
            2.885558
          ],
          [
            101.715687,
            2.883
          ],
          [
            101.715,
            2.88
          ]
        ]
      }
    },
    {
      "type": "Feature",
      "id": "SG-02",
      "properties": {
        "kod": "SG-02",
        "nama": "Sungai Latihan Timur",
        "panjang_km": 5.44
      },
      "geometry": {
        "type": "LineString",
        "coordinates": [
          [
            101.74,
            2.945
          ],
          [
            101.738695,
            2.943339
          ],
          [
            101.737448,
            2.941561
          ],
          [
            101.735592,
            2.941031
          ],
          [
            101.734399,
            2.93914
          ],
          [
            101.732911,
            2.937855
          ],
          [
            101.731153,
            2.937123
          ],
          [
            101.729536,
            2.936104
          ],
          [
            101.727606,
            2.935725
          ],
          [
            101.725679,
            2.935338
          ],
          [
            101.723725,
            2.935009
          ],
          [
            101.721744,
            2.934735
          ],
          [
            101.719485,
            2.935031
          ],
          [
            101.717708,
            2.934338
          ],
          [
            101.715473,
            2.934584
          ],
          [
            101.713668,
            2.933949
          ],
          [
            101.711265,
            2.93454
          ],
          [
            101.709659,
            2.933496
          ],
          [
            101.707675,
            2.933229
          ],
          [
            101.706097,
            2.932128
          ],
          [
            101.704741,
            2.930572
          ],
          [
            101.703212,
            2.929372
          ],
          [
            101.701646,
            2.928247
          ],
          [
            101.700497,
            2.926267
          ],
          [
            101.699,
            2.925
          ]
        ]
      }
    },
    {
      "type": "Feature",
      "id": "SG-03",
      "properties": {
        "kod": "SG-03",
        "nama": "Anak Sungai Latihan",
        "panjang_km": 5.55
      },
      "geometry": {
        "type": "LineString",
        "coordinates": [
          [
            101.66,
            2.905
          ],
          [
            101.662474,
            2.905158
          ],
          [
            101.664936,
            2.90523
          ],
          [
            101.667472,
            2.905815
          ],
          [
            101.669909,
            2.905717
          ],
          [
            101.672356,
            2.905689
          ],
          [
            101.674685,
            2.904854
          ],
          [
            101.676998,
            2.903909
          ],
          [
            101.679285,
            2.902781
          ],
          [
            101.681627,
            2.902036
          ],
          [
            101.684013,
            2.901592
          ],
          [
            101.686276,
            2.900301
          ],
          [
            101.68865,
            2.899769
          ],
          [
            101.690997,
            2.899056
          ],
          [
            101.693288,
            2.897962
          ],
          [
            101.695752,
            2.898046
          ],
          [
            101.698059,
            2.897061
          ],
          [
            101.700569,
            2.897464
          ],
          [
            101.702971,
            2.897129
          ],
          [
            101.705556,
            2.898045
          ],
          [
            101.708,
            2.898
          ]
        ]
      }
    }
  ]
}
